STARLINK-35733          
1 66224U 25244U   25323.91668981  .00057785  00000+0  10405-2 0  9993
2 66224  53.1601  23.5616 0001467 103.0036 114.7417 15.49276792  4542
STARLINK-35734          
1 66225U 25244V   25323.91668981  .00060658  00000+0  10922-2 0  9991
2 66225  53.1600  23.5642 0001064  89.9935 125.9701 15.49257796  4547
STARLINK-34466          
1 66226U 25244W   25323.91668981  .00057207  00000+0  10310-2 0  9999
2 66226  53.1600  23.5563 0001124  81.4906 138.3141 15.49255825  4864
STARLINK-34882          
1 66227U 25244X   25323.91668981  .00056837  00000+0  10244-2 0  9994
2 66227  53.1600  23.5517 0001160  85.5451 136.1730 15.49257392  4865
STARLINK-35731          
1 66228U 25244Y   25323.91668981 -.00290898  00000+0 -53949-2 0  9993
2 66228  53.1601  23.5480 0001225  83.5510 140.1122 15.49435579  4542
STARLINK-35758          
1 66229U 25244Z   25323.91668981  .00058066  00000+0  10462-2 0  9994
2 66229  53.1599  23.5446 0001167  82.5029 143.0469 15.49257364  4540
STARLINK-35736          
1 66230U 25244AA  25323.91668981  .00058213  00000+0  10489-2 0  9999
2 66230  53.1600  23.5404 0001098  81.3237 146.1467 15.49255650  4548
STARLINK-35735          
1 66231U 25244AB  25323.91668981  .00057923  00000+0  10437-2 0  9990
2 66231  53.1599  23.5366 0001119  83.0554 146.3298 15.49257162  4542
STARLINK-35753          
1 66232U 25244AC  25323.91668981  .00062613  00000+0  11270-2 0  9999
2 66232  53.1600  23.5330 0001154  87.8328 143.4723 15.49253081  4544
STARLINK-35626          
1 66233U 25244AD  25323.91668981  .00063610  00000+0  11447-2 0  9994
2 66233  53.1599  23.5289 0001222  90.2258 142.9976 15.49252536  4707
STARLINK-35537          
1 66234U 25245A   25323.91668981 -.02075995  00000+0 -36261-1 0  9999
2 66234  53.1599  77.4247 0001401  67.4155 107.4487 15.53363588  4439
STARLINK-35541          
1 66235U 25245B   25323.91668981 -.02062266  00000+0 -36008-1 0  9996
2 66235  53.1600  77.4202 0001114  56.8129 119.9699 15.53354026  4382
